{
  "type": "FeatureCollection",
  "features": [
    {
      "type": "Feature",
      "properties": {
        "norad_id": 40894,
        "name": "GAOFEN-9 01",
        "group": "resource",
        "lat": 77.65503295134856,
        "lon": -120.77147541755986,
        "alt_km": 601.7613523213231,
        "timestamp": "2025-12-08T03:50:06.662172+00:00",
        "meta_object_name": "GAOFEN-9 01",
        "meta_object_id": "2015-047A",
        "meta_epoch": "2025-12-07T06:19:46.564896",
        "meta_mean_motion": 14.82401881,
        "meta_eccentricity": 0.00287458,
        "meta_inclination": 97.6545,
        "meta_ra_of_asc_node": 20.4557,
        "meta_arg_of_pericenter": 51.6435,
        "meta_mean_anomaly": 308.7356,
        "meta_ephemeris_type": 0,
        "meta_classification_type": "U",
        "meta_norad_cat_id": 40894,
        "meta_element_set_no": 999,
        "meta_rev_at_epoch": 55175,
        "meta_bstar": 0.00029371639,
        "meta_mean_motion_dot": 2.318e-05,
        "meta_mean_motion_ddot": 0,
        "tle_line1": "1 40894U 15047A   25341.26373339  .00002318  00000+0  29372-3 0  9992",
        "tle_line2": "2 40894  97.6545  20.4557 0028745  51.6435 308.7356 14.82401881551758"
      },
      "geometry": {
        "type": "Point",
        "coordinates": [
          -120.77147541755986,
          77.65503295134856
        ]
      }
    },
    {
      "type": "Feature",
      "properties": {
        "norad_id": 41026,
        "name": "YAOGAN-28",
        "group": "resource",
        "lat": -76.37536749582931,
        "lon": 151.91867719963395,
        "alt_km": 506.8849316046335,
        "timestamp": "2025-12-08T03:50:06.662182+00:00",
        "meta_object_name": "YAOGAN-28",
        "meta_object_id": "2015-064A",
        "meta_epoch": "2025-12-07T07:41:49.832160",
        "meta_mean_motion": 15.24216998,
        "meta_eccentricity": 0.00121564,
        "meta_inclination": 97.281,
        "meta_ra_of_asc_node": 119.267,
        "meta_arg_of_pericenter": 143.7882,
        "meta_mean_anomaly": 216.4181,
        "meta_ephemeris_type": 0,
        "meta_classification_type": "U",
        "meta_norad_cat_id": 41026,
        "meta_element_set_no": 999,
        "meta_rev_at_epoch": 56142,
        "meta_bstar": 0.00055156368,
        "meta_mean_motion_dot": 0.00013416,
        "meta_mean_motion_ddot": 0,
        "tle_line1": "1 41026U 15064A   25341.32071565  .00013416  00000+0  55156-3 0  9992",
        "tle_line2": "2 41026  97.2810 119.2670 0012156 143.7882 216.4181 15.24216998561424"
      },
      "geometry": {
        "type": "Point",
        "coordinates": [
          151.91867719963395,
          -76.37536749582931
        ]
      }
    },
    {
      "type": "Feature",
      "properties": {
        "norad_id": 41038,
        "name": "YAOGAN-29",
        "group": "resource",
        "lat": -20.441971431517533,
        "lon": 8.329963163566994,
        "alt_km": 625.2082777704027,
        "timestamp": "2025-12-08T03:50:06.662191+00:00",
        "meta_object_name": "YAOGAN-29",
        "meta_object_id": "2015-069A",
        "meta_epoch": "2025-12-07T06:52:30.261504",
        "meta_mean_motion": 14.82873565,
        "meta_eccentricity": 4.496e-05,
        "meta_inclination": 98.0223,
        "meta_ra_of_asc_node": 4.4405,
        "meta_arg_of_pericenter": 355.0125,
        "meta_mean_anomaly": 5.1083,
        "meta_ephemeris_type": 0,
        "meta_classification_type": "U",
        "meta_norad_cat_id": 41038,
        "meta_element_set_no": 999,
        "meta_rev_at_epoch": 54218,
        "meta_bstar": 0.00011843946,
        "meta_mean_motion_dot": 9.05e-06,
        "meta_mean_motion_ddot": 0,
        "tle_line1": "1 41038U 15069A   25341.28646136  .00000905  00000+0  11844-3 0  9992",
        "tle_line2": "2 41038  98.0223   4.4405 0000449 355.0125   5.1083 14.82873565542183"
      },
      "geometry": {
        "type": "Point",
        "coordinates": [
          8.329963163566994,
          -20.441971431517533
        ]
      }
    },
    {
      "type": "Feature",
      "properties": {
        "norad_id": 41167,
        "name": "KENT RIDGE 1",
        "group": "resource",
        "lat": -10.384920469674084,
        "lon": 108.40580788151038,
        "alt_km": 505.0320980203087,
        "timestamp": "2025-12-08T03:50:06.662202+00:00",
        "meta_object_name": "KENT RIDGE 1",
        "meta_object_id": "2015-077B",
        "meta_epoch": "2025-12-06T22:32:12.951456",
        "meta_mean_motion": 15.21567192,
        "meta_eccentricity": 0.00085732,
        "meta_inclination": 14.9795,
        "meta_ra_of_asc_node": 254.1844,
        "meta_arg_of_pericenter": 48.4513,
        "meta_mean_anomaly": 311.6543,
        "meta_ephemeris_type": 0,
        "meta_classification_type": "U",
        "meta_norad_cat_id": 41167,
        "meta_element_set_no": 999,
        "meta_rev_at_epoch": 55175,
        "meta_bstar": 0.0002724168,
        "meta_mean_motion_dot": 7.094e-05,
        "meta_mean_motion_ddot": 0,
        "tle_line1": "1 41167U 15077B   25340.93903879  .00007094  00000+0  27242-3 0  9990",
        "tle_line2": "2 41167  14.9795 254.1844 0008573  48.4513 311.6543 15.21567192551757"
      },
      "geometry": {
        "type": "Point",
        "coordinates": [
          108.40580788151038,
          -10.384920469674084
        ]
      }
    },
    {
      "type": "Feature",
      "properties": {
        "norad_id": 41194,
        "name": "GAOFEN-4",
        "group": "resource",
        "lat": 0.031474724614904616,
        "lon": -119.56590982880894,
        "alt_km": 35777.20453197882,
        "timestamp": "2025-12-08T03:50:06.662214+00:00",
        "meta_object_name": "GAOFEN-4",
        "meta_object_id": "2015-083A",
        "meta_epoch": "2025-12-07T02:48:38.666880",
        "meta_mean_motion": 1.00271915,
        "meta_eccentricity": 0.00035956,
        "meta_inclination": 0.1556,
        "meta_ra_of_asc_node": 80.9701,
        "meta_arg_of_pericenter": 105.7672,
        "meta_mean_anomaly": 37.2751,
        "meta_ephemeris_type": 0,
        "meta_classification_type": "U",
        "meta_norad_cat_id": 41194,
        "meta_element_set_no": 999,
        "meta_rev_at_epoch": 3660,
        "meta_bstar": 0,
        "meta_mean_motion_dot": -3.3e-06,
        "meta_mean_motion_ddot": 0,
        "tle_line1": "1 41194U 15083A   25341.11711420 -.00000330  00000+0  00000+0 0  9993",
        "tle_line2": "2 41194   0.1556  80.9701 0003595 105.7672  37.2751  1.00271915 36609"
      },
      "geometry": {
        "type": "Point",
        "coordinates": [
          -119.56590982880894,
          0.031474724614904616
        ]
      }
    },
    {
      "type": "Feature",
      "properties": {
        "norad_id": 41240,
        "name": "JASON-3",
        "group": "resource",
        "lat": -32.97524406042762,
        "lon": 150.68593344391422,
        "alt_km": 1312.8325257377755,
        "timestamp": "2025-12-08T03:50:06.662224+00:00",
        "meta_object_name": "JASON-3",
        "meta_object_id": "2016-002A",
        "meta_epoch": "2025-12-07T05:39:19.950048",
        "meta_mean_motion": 12.87626278,
        "meta_eccentricity": 0.00071293,
        "meta_inclination": 66.0391,
        "meta_ra_of_asc_node": 169.3962,
        "meta_arg_of_pericenter": 270.507,
        "meta_mean_anomaly": 89.5132,
        "meta_ephemeris_type": 0,
        "meta_classification_type": "U",
        "meta_norad_cat_id": 41240,
        "meta_element_set_no": 999,
        "meta_rev_at_epoch": 46253,
        "meta_bstar": 7.9894815e-05,
        "meta_mean_motion_dot": -4.2e-07,
        "meta_mean_motion_ddot": 0,
        "tle_line1": "1 41240U 16002A   25341.23564757 -.00000042  00000+0  79895-4 0  9992",
        "tle_line2": "2 41240  66.0391 169.3962 0007129 270.5070  89.5132 12.87626278462531"
      },
      "geometry": {
        "type": "Point",
        "coordinates": [
          150.68593344391422,
          -32.97524406042762
        ]
      }
    },
    {
      "type": "Feature",
      "properties": {
        "norad_id": 41335,
        "name": "SENTINEL-3A",
        "group": "resource",
        "lat": -61.59019024149183,
        "lon": -149.05299087685998,
        "alt_km": 810.3952203487079,
        "timestamp": "2025-12-08T03:50:06.662234+00:00",
        "meta_object_name": "SENTINEL-3A",
        "meta_object_id": "2016-011A",
        "meta_epoch": "2025-12-07T06:30:12.563136",
        "meta_mean_motion": 14.26743516,
        "meta_eccentricity": 9.69e-05,
        "meta_inclination": 98.6214,
        "meta_ra_of_asc_node": 46.3602,
        "meta_arg_of_pericenter": 92.4257,
        "meta_mean_anomaly": 267.7034,
        "meta_ephemeris_type": 0,
        "meta_classification_type": "U",
        "meta_norad_cat_id": 41335,
        "meta_element_set_no": 999,
        "meta_rev_at_epoch": 51069,
        "meta_bstar": 0.00014415303,
        "meta_mean_motion_dot": 3.05e-06,
        "meta_mean_motion_ddot": 0,
        "tle_line1": "1 41335U 16011A   25341.27097874  .00000305  00000+0  14415-3 0  9999",
        "tle_line2": "2 41335  98.6214  46.3602 0000969  92.4257 267.7034 14.26743516510691"
      },
      "geometry": {
        "type": "Point",
        "coordinates": [
          -149.05299087685998,
          -61.59019024149183
        ]
      }
    }
  ]
}